[{"OBJECT_NAME":"FLOCK 4G-5","OBJECT_ID":"2025-009BG","EPOCH":"2026-03-09T10:57:11.608704","MEAN_MOTION":15.28679529,"ECCENTRICITY":0.00020946,"INCLINATION":97.4058,"RA_OF_ASC_NODE":151.2478,"ARG_OF_PERICENTER":314.5072,"MEAN_ANOMALY":45.5996,"EPHEMERIS_TYPE":0,"CLASSIFICATION_TYPE":"U","NORAD_CAT_ID":62663,"ELEMENT_SET_NO":999,"REV_AT_EPOCH":6369,"BSTAR":0.00040688068,"MEAN_MOTION_DOT":0.00011278,"MEAN_MOTION_DDOT":0},{"OBJECT_NAME":"STARLINK-36114","OBJECT_ID":"2025-281Y","EPOCH":"2026-03-09T04:00:11.807712","MEAN_MOTION":15.27579451,"ECCENTRICITY":0.00017389,"INCLINATION":43.0035,"RA_OF_ASC_NODE":346.5907,"ARG_OF_PERICENTER":277.5261,"MEAN_ANOMALY":82.5393,"EPHEMERIS_TYPE":0,"CLASSIFICATION_TYPE":"U","NORAD_CAT_ID":66870,"ELEMENT_SET_NO":999,"REV_AT_EPOCH":1609,"BSTAR":0.0010411177,"MEAN_MOTION_DOT":0.00028498,"MEAN_MOTION_DDOT":0}]
